CCSDS_OMM_VERS,COMMENT,CREATION_DATE,ORIGINATOR,OBJECT_NAME,OBJECT_ID,CENTER_NAME,REF_FRAME,TIME_SYSTEM,MEAN_ELEMENT_THEORY,EPOCH,MEAN_MOTION,ECCENTRICITY,INCLINATION,RA_OF_ASC_NODE,ARG_OF_PERICENTER,MEAN_ANOMALY,EPHEMERIS_TYPE,CLASSIFICATION_TYPE,NORAD_CAT_ID,ELEMENT_SET_NO,REV_AT_EPOCH,BSTAR,MEAN_MOTION_DOT,MEAN_MOTION_DDOT,SEMIMAJOR_AXIS,PERIOD,APOAPSIS,PERIAPSIS,OBJECT_TYPE,RCS_SIZE,COUNTRY_CODE,LAUNCH_DATE,SITE,DECAY_DATE,FILE,GP_ID,TLE_LINE0,TLE_LINE1,TLE_LINE2
2,GENERATED VIA SPACE-TRACK.ORG API,2008-09-08T08:11:55,18 SPCS,BREEZE-M R/B,2000-029B,EARTH,TEME,UTC,SGP4,2008-09-05T18:15:40.732703,1.00306523,0.0273573,5.7707,66.7423,163.1085,198.0279,0,U,26373,999,3027,0.0001,-1.02e-06,0,42155.023,1435.599,36930.136,34623.64,ROCKET BODY,MEDIUM,CIS,2000-06-06,TTMTR,,602513,67852073,0 BREEZE-M R/B,1 26373U 00029B   08249.76088811 -.00000102 +00000-0 +10000-3 0  9992,2 26373 005.7707 066.7423 0273573 163.1085 198.0279 01.00306523030276
2,GENERATED VIA SPACE-TRACK.ORG API,2008-09-06T07:50:20,18 SPCS,BREEZE-M R/B,2000-029B,EARTH,TEME,UTC,SGP4,2008-09-05T18:15:41.070528,1.00306518,0.0273534,5.7706,66.7424,163.1152,198.0224,0,U,26373,999,3027,0.0001,-1.02e-06,0,42155.024,1435.599,36929.973,34623.806,ROCKET BODY,MEDIUM,CIS,2000-06-06,TTMTR,,601782,67826311,0 BREEZE-M R/B,1 26373U 00029B   08249.76089202 -.00000102  00000-0  10000-3 0  9997,2 26373 005.7706 066.7424 0273534 163.1152 198.0224 01.00306518 30272
2,GENERATED VIA SPACE-TRACK.ORG API,2008-09-09T07:11:54,18 SPCS,BREEZE-M R/B,2000-029B,EARTH,TEME,UTC,SGP4,2008-09-06T18:11:10.802688,1.00306651,0.0273653,5.773,66.7313,163.1419,197.9889,0,U,26373,999,3028,0.0001,-9.7e-07,0,42154.987,1435.597,36930.436,34623.268,ROCKET BODY,MEDIUM,CIS,2000-06-06,TTMTR,,603000,67865343,0 BREEZE-M R/B,1 26373U 00029B   08250.75776392 -.00000097 +00000-0 +10000-3 0  9994,2 26373 005.7730 066.7313 0273653 163.1419 197.9889 01.00306651030288
2,GENERATED VIA SPACE-TRACK.ORG API,2008-09-09T08:03:38,18 SPCS,BREEZE-M R/B,2000-029B,EARTH,TEME,UTC,SGP4,2008-09-08T18:02:15.181439,1.00306928,0.0273982,5.778,66.7095,163.1905,197.9464,0,U,26373,999,3030,0.0001,-8.5e-07,0,42154.909,1435.593,36931.743,34621.806,ROCKET BODY,MEDIUM,CIS,2000-06-06,TTMTR,,603051,67868023,0 BREEZE-M R/B,1 26373U 00029B   08252.75156460 -.00000085  00000-0  10000-3 0  9991,2 26373 005.7780 066.7095 0273982 163.1905 197.9464 01.00306928 30304
2,GENERATED VIA SPACE-TRACK.ORG API,2008-09-11T07:11:47,18 SPCS,BREEZE-M R/B,2000-029B,EARTH,TEME,UTC,SGP4,2008-09-09T17:57:49.827168,1.00307057,0.0274047,5.7804,66.6982,163.2047,197.9468,0,U,26373,999,3031,0.0001,-7.9e-07,0,42154.873,1435.591,36931.98,34621.497,ROCKET BODY,MEDIUM,CIS,2000-06-06,TTMTR,,604020,67887365,0 BREEZE-M R/B,1 26373U 00029B   08253.74849337 -.00000079 +00000-0 +10000-3 0  9996,2 26373 005.7804 066.6982 0274047 163.2047 197.9468 01.00307057030315
2,GENERATED VIA SPACE-TRACK.ORG API,2008-09-12T07:11:50,18 SPCS,BREEZE-M R/B,2000-029B,EARTH,TEME,UTC,SGP4,2008-09-09T17:57:49.921343,1.0030707,0.0273926,5.7803,66.6968,163.2238,197.9317,0,U,26373,999,3031,0.0001,-7.9e-07,0,42154.87,1435.591,36931.466,34622.003,ROCKET BODY,MEDIUM,CIS,2000-06-06,TTMTR,,604468,67899903,0 BREEZE-M R/B,1 26373U 00029B   08253.74849446 -.00000079 +00000-0 +10000-3 0  9997,2 26373 005.7803 066.6968 0273926 163.2238 197.9317 01.00307070030313
2,GENERATED VIA SPACE-TRACK.ORG API,2008-09-13T07:57:57,18 SPCS,BREEZE-M R/B,2000-029B,EARTH,TEME,UTC,SGP4,2008-09-12T17:44:33.829152,1.00307462,0.0273966,5.7876,66.6633,163.2869,197.9154,0,U,26373,999,3034,0.0001,-6e-07,0,42154.76,1435.586,36931.522,34621.728,ROCKET BODY,MEDIUM,CIS,2000-06-06,TTMTR,,604988,67915908,0 BREEZE-M R/B,1 26373U 00029B   08256.73928043 -.00000060  00000-0  10000-3 0  9990,2 26373 005.7876 066.6633 0273966 163.2869 197.9154 01.00307462 30343
2,GENERATED VIA SPACE-TRACK.ORG API,2008-09-15T07:11:47,18 SPCS,BREEZE-M R/B,2000-029B,EARTH,TEME,UTC,SGP4,2008-09-13T17:40:06.823775,1.00307611,0.0274037,5.79,66.6524,163.2985,197.9138,0,U,26373,999,3035,0.0001,-5.5e-07,0,42154.718,1435.583,36931.778,34621.388,ROCKET BODY,MEDIUM,CIS,2000-06-06,TTMTR,,605698,67941662,0 BREEZE-M R/B,1 26373U 00029B   08257.73619009 -.00000055 +00000-0 +10000-3 0  9994,2 26373 005.7900 066.6524 0274037 163.2985 197.9138 01.00307611030358
2,GENERATED VIA SPACE-TRACK.ORG API,2008-09-17T07:11:50,18 SPCS,BREEZE-M R/B,2000-029B,EARTH,TEME,UTC,SGP4,2008-09-14T17:35:36.933504,1.00307773,0.0273922,5.7922,66.6402,163.3414,197.8739,0,U,26373,999,3036,0.0001,-5e-07,0,42154.673,1435.581,36931.247,34621.828,ROCKET BODY,MEDIUM,CIS,2000-06-06,TTMTR,,606780,67970107,0 BREEZE-M R/B,1 26373U 00029B   08258.73306636 -.00000050 +00000-0 +10000-3 0  9999,2 26373 005.7922 066.6402 0273922 163.3414 197.8739 01.00307773030363
2,GENERATED VIA SPACE-TRACK.ORG API,2008-09-16T07:11:50,18 SPCS,BREEZE-M R/B,2000-029B,EARTH,TEME,UTC,SGP4,2008-09-14T17:35:37.900320,1.00307766,0.0274012,5.7923,66.6407,163.3316,197.8858,0,U,26373,999,3036,0.0001,-5e-07,0,42154.675,1435.581,36931.628,34621.451,ROCKET BODY,MEDIUM,CIS,2000-06-06,TTMTR,,606195,67955952,0 BREEZE-M R/B,1 26373U 00029B   08258.73307755 -.00000050 +00000-0 +10000-3 0  9992,2 26373 005.7923 066.6407 0274012 163.3316 197.8858 01.00307766030365
2,GENERATED VIA SPACE-TRACK.ORG API,2008-09-17T07:54:36,18 SPCS,BREEZE-M R/B,2000-029B,EARTH,TEME,UTC,SGP4,2008-09-16T17:26:31.027199,1.00308055,0.0274046,5.797,66.6179,163.3844,197.803,0,U,26373,999,3038,0.0001,-4.5e-07,0,42154.594,1435.577,36931.688,34621.229,ROCKET BODY,MEDIUM,CIS,2000-06-06,TTMTR,,606806,67972616,0 BREEZE-M R/B,1 26373U 00029B   08260.72674800 -.00000045  00000-0  10000-3 0  9996,2 26373 005.7970 066.6179 0274046 163.3844 197.8030 01.00308055 30382
2,GENERATED VIA SPACE-TRACK.ORG API,2008-09-20T07:11:50,18 SPCS,BREEZE-M R/B,2000-029B,EARTH,TEME,UTC,SGP4,2008-09-17T17:21:55.651392,1.00308206,0.027417,5.7995,66.6066,163.4037,197.761,0,U,26373,999,3039,0.0001,-4.6e-07,0,42154.551,1435.575,36932.168,34620.665,ROCKET BODY,MEDIUM,CIS,2000-06-06,TTMTR,,608203,68005320,0 BREEZE-M R/B,1 26373U 00029B   08261.72356078 -.00000046 +00000-0 +10000-3 0  9992,2 26373 005.7995 066.6066 0274170 163.4037 197.7610 01.00308206030399
2,GENERATED VIA SPACE-TRACK.ORG API,2008-09-21T09:11:45,18 SPCS,BREEZE-M R/B,2000-029B,EARTH,TEME,UTC,SGP4,2008-09-18T17:17:19.021920,1.00308354,0.0274149,5.8019,66.5953,163.4361,197.7016,0,U,26373,999,3040,0.0001,-4.9e-07,0,42154.51,1435.573,36932.037,34620.713,ROCKET BODY,MEDIUM,CIS,2000-06-06,TTMTR,,608692,68022281,0 BREEZE-M R/B,1 26373U 00029B   08262.72035905 -.00000049 +00000-0 +10000-3 0  9999,2 26373 005.8019 066.5953 0274149 163.4361 197.7016 01.00308354030403
2,GENERATED VIA SPACE-TRACK.ORG API,2008-09-23T07:11:49,18 SPCS,BREEZE-M R/B,2000-029B,EARTH,TEME,UTC,SGP4,2008-09-20T17:08:08.479391,1.00308643,0.0274226,5.8068,66.5714,163.4969,197.5995,0,U,26373,999,3042,0.0001,-6e-07,0,42154.429,1435.569,36932.278,34620.31,ROCKET BODY,MEDIUM,CIS,2000-06-06,TTMTR,,609428,68047666,0 BREEZE-M R/B,1 26373U 00029B   08264.71398703 -.00000060 +00000-0 +10000-3 0  9991,2 26373 005.8068 066.5714 0274226 163.4969 197.5995 01.00308643030429
2,GENERATED VIA SPACE-TRACK.ORG API,2008-09-21T07:51:55,18 SPCS,BREEZE-M R/B,2000-029B,EARTH,TEME,UTC,SGP4,2008-09-20T17:08:09.109247,1.00308637,0.0274165,5.8066,66.572,163.5004,197.5977,0,U,26373,999,3042,0.0001,-6e-07,0,42154.431,1435.569,36932.023,34620.569,ROCKET BODY,MEDIUM,CIS,2000-06-06,TTMTR,,608612,68015109,0 BREEZE-M R/B,1 26373U 00029B   08264.71399432 -.00000060  00000-0  10000-3 0  9991,2 26373 005.8066 066.5720 0274165 163.5004 197.5977 01.00308637 30420
2,GENERATED VIA SPACE-TRACK.ORG API,2008-09-24T15:50:09,18 SPCS,BREEZE-M R/B,2000-029B,EARTH,TEME,UTC,SGP4,2008-09-23T16:54:40.408704,1.00309073,0.0274401,5.8141,66.537,163.5782,197.5299,0,U,26373,999,3045,0.0001,-7.9e-07,0,42154.308,1435.563,36932.892,34619.455,ROCKET BODY,MEDIUM,CIS,2000-06-06,TTMTR,,610160,68066381,0 BREEZE-M R/B,1 26373U 00029B   08267.70463436 -.00000079  00000-0  10000-3 0  9999,2 26373 005.8141 066.5370 0274401 163.5782 197.5299 01.00309073 30456
2,GENERATED VIA SPACE-TRACK.ORG API,2008-09-27T09:11:46,18 SPCS,BREEZE-M R/B,2000-029B,EARTH,TEME,UTC,SGP4,2008-09-25T16:45:45.909792,1.0030938,0.0274426,5.8189,66.5158,163.6302,197.5054,0,U,26373,999,3047,0.0001,-8.4e-07,0,42154.222,1435.558,36932.909,34619.266,ROCKET BODY,MEDIUM,CIS,2000-06-06,TTMTR,,611405,68096307,0 BREEZE-M R/B,1 26373U 00029B   08269.69844803 -.00000084 +00000-0 +10000-3 0  9996,2 26373 005.8189 066.5158 0274426 163.6302 197.5054 01.00309380030470
2,GENERATED VIA SPACE-TRACK.ORG API,2008-09-29T07:12:01,18 SPCS,BREEZE-M R/B,2000-029B,EARTH,TEME,UTC,SGP4,2008-09-26T16:41:15.802655,1.00309527,0.0274332,5.8215,66.5034,163.6669,197.4727,0,U,26373,999,3048,0.0001,-8.4e-07,0,42154.181,1435.556,36932.47,34619.622,ROCKET BODY,MEDIUM,CIS,2000-06-06,TTMTR,,612255,68125810,0 BREEZE-M R/B,1 26373U 00029B   08270.69532179 -.00000084 +00000-0 +10000-3 0  9998,2 26373 005.8215 066.5034 0274332 163.6669 197.4727 01.00309527030485
2,GENERATED VIA SPACE-TRACK.ORG API,2008-09-27T09:59:18,18 SPCS,BREEZE-M R/B,2000-029B,EARTH,TEME,UTC,SGP4,2008-09-26T16:41:16.270080,1.00309523,0.0274336,5.8214,66.5034,163.6719,197.4695,0,U,26373,999,3048,0.0001,-8.4e-07,0,42154.182,1435.556,36932.488,34619.606,ROCKET BODY,MEDIUM,CIS,2000-06-06,TTMTR,,611442,68099571,0 BREEZE-M R/B,1 26373U 00029B   08270.69532720 -.00000084  00000-0  10000-3 0  9990,2 26373 005.8214 066.5034 0274336 163.6719 197.4695 01.00309523 30484
2,GENERATED VIA SPACE-TRACK.ORG API,2008-09-30T08:11:54,18 SPCS,BREEZE-M R/B,2000-029B,EARTH,TEME,UTC,SGP4,2008-09-28T16:32:09.447071,1.00309833,0.0274386,5.8264,66.4819,163.7306,197.389,0,U,26373,999,3050,0.0001,-8.1e-07,0,42154.096,1435.552,36932.61,34619.311,ROCKET BODY,MEDIUM,CIS,2000-06-06,TTMTR,,612824,68139908,0 BREEZE-M R/B,1 26373U 00029B   08272.68899823 -.00000081 +00000-0 +10000-3 0  9998,2 26373 005.8264 066.4819 0274386 163.7306 197.3890 01.00309833030500
